[{"HubNumber": 3002, "State": "MA", "HubName": "Franklin Ma.", "Coordinates": [42.0870521, -71.4061876], "Zip": "02038 "}, {"HubNumber": 3007, "State": "MA", "HubName": "Springfield", "Coordinates": [42.1249932, -72.6505957], "Zip": "01089 "}, {"HubNumber": 3010, "State": "FL", "HubName": "Tallahassee, FL II", "Coordinates": [30.4649282, -84.38574419999999], "Zip": "32304 "}, {"HubNumber": 3014, "State": "FL", "HubName": "Tampa, FL II", "Coordinates": [27.9565429, -82.4265217], "Zip": "33605 "}, {"HubNumber": 3015, "State": "CA", "HubName": "Fresno, CA", "Coordinates": [36.6765725, -119.7194377], "Zip": "93725 "}, {"HubNumber": 3016, "State": "CA", "HubName": "Bakersfield, CA II", "Coordinates": [35.344108, -119.0285355], "Zip": "93304 "}, {"HubNumber": 3017, "State": "GA", "HubName": "Atlanta ", "Coordinates": [33.7584098, -84.63744840000001], "Zip": "30122 "}, {"HubNumber": 3020, "State": "FL", "HubName": "Gainesville, FL II", "Coordinates": [29.6788293, -82.4644445], "Zip": "32606 "}, {"HubNumber": 3024, "State": "FL", "HubName": "Pompano Beach", "Coordinates": [26.3042864, -80.15402259999999], "Zip": "33442 "}, {"HubNumber": 3034, "State": "NJ", "HubName": "Jersey City", "Coordinates": [40.7008528, -74.0887576], "Zip": "07305 "}, {"HubNumber": 3036, "State": "CA", "HubName": "Petaluma, CA", "Coordinates": [38.2473117, -122.5712101], "Zip": "94954 "}, {"HubNumber": 3044, "State": "CA", "HubName": "Ontario, CA", "Coordinates": [0, 0], "Zip": "97152 "}, {"HubNumber": 3045, "State": "GA", "HubName": "Savannah, GA ", "Coordinates": [32.08833810000001, -81.26289609999999], "Zip": "31322 "}, {"HubNumber": 3048, "State": "AL", "HubName": "Birmingham, AL", "Coordinates": [33.5269755, -86.8370937], "Zip": "35204 "}, {"HubNumber": 3050, "State": "AL", "HubName": "Huntsville", "Coordinates": [34.7091114, -86.761749], "Zip": "35758 "}, {"HubNumber": 3051, "State": "GA", "HubName": "Atlanta Night", "Coordinates": [33.7584098, -84.63744840000001], "Zip": "30122 "}, {"HubNumber": 3055, "State": "TN", "HubName": "Memphis", "Coordinates": [35.1927931, -89.8692203], "Zip": "38134 "}, {"HubNumber": 3063, "State": "IA", "HubName": "Cedar Rapids, IA", "Coordinates": [41.9270157, -91.69550919999999], "Zip": "52404 "}, {"HubNumber": 3069, "State": "TN", "HubName": "Chattanooga, TN", "Coordinates": [35.041539, -85.1583064], "Zip": "37421 "}, {"HubNumber": 3070, "State": "GA", "HubName": "Augusta, GA", "Coordinates": [33.380425, -81.97529949999999], "Zip": "30906 "}, {"HubNumber": 3071, "State": "GA", "HubName": "Central", "Coordinates": [33.7584098, -84.63744840000001], "Zip": "30122 "}, {"HubNumber": 3075, "State": "CA", "HubName": "Santa Maria, CA", "Coordinates": [34.8442407, -120.4588059], "Zip": "93455 "}, {"HubNumber": 3076, "State": "FL", "HubName": "Quill Misc", "Coordinates": [28.3756472, -81.36194019999999], "Zip": "32824 "}, {"HubNumber": 3084, "State": "WI", "HubName": "Central", "Coordinates": [42.5276281, -89.0752499], "Zip": "53511 "}, {"HubNumber": 3085, "State": "WI", "HubName": "Minnesota", "Coordinates": [42.5276281, -89.0752499], "Zip": "53511 "}, {"HubNumber": 3086, "State": "WI", "HubName": "Wisconsin", "Coordinates": [42.5276281, -89.0752499], "Zip": "53511 "}, {"HubNumber": 3088, "State": "IL", "HubName": "Chicago, IL", "Coordinates": [41.8659365, -87.9089623], "Zip": "60162 "}, {"HubNumber": 3089, "State": "MN", "HubName": "Mankato, MN", "Coordinates": [44.3661998, -94.028678], "Zip": "56082 "}, {"HubNumber": 3090, "State": "IN", "HubName": "South Bend, IN", "Coordinates": [41.6009257, -86.2767995], "Zip": "46614 "}, {"HubNumber": 3093, "State": "WI", "HubName": "Madison, WI", "Coordinates": [43.0850514, -89.25622390000001], "Zip": "53718 "}, {"HubNumber": 3094, "State": "IL", "HubName": "Bloomington, IL", "Coordinates": [40.4772644, -88.93180819999999], "Zip": "61704 "}, {"HubNumber": 3095, "State": "MN", "HubName": "Clearwater, MN", "Coordinates": [45.4051686, -94.0858633], "Zip": "55320 "}, {"HubNumber": 3096, "State": "WI", "HubName": "Eau Claire, WI", "Coordinates": [44.7470586, -91.50150090000001], "Zip": "54701 "}, {"HubNumber": 3097, "State": "IA", "HubName": "Davenport, IA", "Coordinates": [41.4945351, -90.634631], "Zip": "52802 "}, {"HubNumber": 3319, "State": "CA", "HubName": "San Diego, CA", "Coordinates": [32.8981142, -117.2029363], "Zip": "92121 "}, {"HubNumber": 3322, "State": "NY", "HubName": "Montgomery NY", "Coordinates": [41.5180848, -74.24140919999999], "Zip": "12549 "}, {"HubNumber": 3324, "State": "TX", "HubName": "Texas II", "Coordinates": [32.9618763, -96.99609249999999], "Zip": "75019 "}, {"HubNumber": 3330, "State": "PA", "HubName": "Wilkes-Barre", "Coordinates": [41.24262, -75.87835679999999], "Zip": "18702 "}, {"HubNumber": 3340, "State": "OH", "HubName": "Ashland, OH", "Coordinates": [38.5702309, -82.669947], "Zip": "45638 "}, {"HubNumber": 3341, "State": "OH", "HubName": "Parkersburg, WV", "Coordinates": [39.4404583, -81.4498717], "Zip": "45750 "}, {"HubNumber": 3343, "State": "CA", "HubName": "Commerce, CA", "Coordinates": [33.9930471, -118.153228], "Zip": "90040 "}, {"HubNumber": 3352, "State": "AL", "HubName": "Mobile, AL", "Coordinates": [30.7041262, -88.11449429999999], "Zip": "36607 "}, {"HubNumber": 3362, "State": "GA", "HubName": "Tifton, GA", "Coordinates": [31.4400847, -83.4856913], "Zip": "31794 "}, {"HubNumber": 3363, "State": "WA", "HubName": "Pasco", "Coordinates": [46.3537739, -118.9197656], "Zip": "99301 "}, {"HubNumber": 3369, "State": "NV", "HubName": "Las Vegas, NV", "Coordinates": [36.3193563, -115.0228736], "Zip": "89115 "}, {"HubNumber": 3374, "State": "WI", "HubName": "Milwaukee, WI", "Coordinates": [42.97120710000001, -87.9040571], "Zip": "53207 "}, {"HubNumber": 3375, "State": "PA", "HubName": "Pittsburg, PA", "Coordinates": [40.3380768, -79.9789606], "Zip": "15236 "}, {"HubNumber": 3381, "State": "TX", "HubName": "Memphis", "Coordinates": [32.9618763, -96.99609249999999], "Zip": "75019 "}, {"HubNumber": 3382, "State": "OK", "HubName": "Oklahoma City", "Coordinates": [35.4495749, -97.55722310000002], "Zip": "73108 "}, {"HubNumber": 3385, "State": "TX", "HubName": "Grapevine, TX", "Coordinates": [32.9618763, -96.99609249999999], "Zip": "75019 "}, {"HubNumber": 3388, "State": "NH", "HubName": "Dover, NH", "Coordinates": [43.1819713, -70.89523369999999], "Zip": "03820 "}, {"HubNumber": 3389, "State": "NH", "HubName": "Hooksett, NH", "Coordinates": [42.8680259, -71.37569119999999], "Zip": "03053 "}, {"HubNumber": 3390, "State": "TX", "HubName": "West Texas", "Coordinates": [33.580247, -102.0946818], "Zip": "79407 "}, {"HubNumber": 3392, "State": "GA", "HubName": "Macon, GA", "Coordinates": [32.7962119, -83.6880257], "Zip": "31206 "}, {"HubNumber": 3394, "State": "NY", "HubName": "Syracuse 3rd Party", "Coordinates": [43.0756836, -76.1493891], "Zip": "13208 "}, {"HubNumber": 3443, "State": "OH", "HubName": "Wheeling WV", "Coordinates": [40.0903341, -80.7934798], "Zip": "43912 "}, {"HubNumber": 3450, "State": "NV", "HubName": "Reno, NV", "Coordinates": [39.5351309, -119.5803605], "Zip": "89434 "}, {"HubNumber": 3451, "State": "PA", "HubName": "Harrisburg", "Coordinates": [40.255136, -76.857682], "Zip": "17104 "}, {"HubNumber": 3452, "State": "CA", "HubName": "Stockton, II", "Coordinates": [37.9009213, -121.422761], "Zip": "95206 "}, {"HubNumber": 3456, "State": "NY", "HubName": "Montgomery II", "Coordinates": [41.5180848, -74.24140919999999], "Zip": "12549 "}, {"HubNumber": 3460, "State": "CA", "HubName": "-Ontario, Ca.", "Coordinates": [34.0348144, -117.5848025], "Zip": "91761 "}, {"HubNumber": 3463, "State": "CA", "HubName": "Commerce, CA", "Coordinates": [33.9930471, -118.153228], "Zip": "90040 "}, {"HubNumber": 3465, "State": "PA", "HubName": "Harrisburg", "Coordinates": [39.9847065, -77.665066], "Zip": "17201 "}, {"HubNumber": 3466, "State": "WA", "HubName": "Spokane", "Coordinates": [47.6728781, -117.5361045], "Zip": "99224 "}, {"HubNumber": 3468, "State": "MN", "HubName": "Duluth, MN", "Coordinates": [46.8220948, -92.1865684], "Zip": "55811 "}, {"HubNumber": 3471, "State": "NY", "HubName": "Queens, NY", "Coordinates": [40.7224092, -73.9095279], "Zip": "11378 "}, {"HubNumber": 3478, "State": "DE", "HubName": "Smyrna", "Coordinates": [38.7352162, -75.5975296], "Zip": "19933 "}, {"HubNumber": 3480, "State": "TX", "HubName": "Tyler TX", "Coordinates": [32.318696, -95.16406049999999], "Zip": "75707 "}, {"HubNumber": 3585, "State": "NY", "HubName": "Montgomery, NY", "Coordinates": [41.5180848, -74.24140919999999], "Zip": "12549 "}, {"HubNumber": 3603, "State": "PA", "HubName": "Pittsburg, PA II", "Coordinates": [40.4042704, -78.49792479999999], "Zip": "16635 "}, {"HubNumber": 3716, "State": "IN", "HubName": "Indianapolis", "Coordinates": [39.7803581, -86.0427626], "Zip": "46219 "}, {"HubNumber": 3720, "State": "OR", "HubName": "Oregon", "Coordinates": [45.5507889, -122.5057403], "Zip": "97230 "}, {"HubNumber": 3731, "State": "IN", "HubName": "Fort Wayne, IN", "Coordinates": [41.089823, -85.17904039999999], "Zip": "46808 "}, {"HubNumber": 3740, "State": "OH", "HubName": "Dayton, OH", "Coordinates": [39.8476384, -84.21734029999999], "Zip": "45414 "}, {"HubNumber": 3741, "State": "OH", "HubName": "Cincinnati", "Coordinates": [39.2828895, -84.46976629999999], "Zip": "45246 "}, {"HubNumber": 3742, "State": "WA", "HubName": "Tacoma, WA", "Coordinates": [47.2324122, -122.3473803], "Zip": "98424 "}, {"HubNumber": 3748, "State": "TX", "HubName": "Dallas, TX ", "Coordinates": [32.9618763, -96.99609249999999], "Zip": "75019 "}, {"HubNumber": 3754, "State": "TN", "HubName": "Knoxville", "Coordinates": [35.7919891, -83.97971729999999], "Zip": "37701 "}, {"HubNumber": 3755, "State": "LA", "HubName": "Shreveport", "Coordinates": [32.4735657, -93.82991059999999], "Zip": "71109 "}, {"HubNumber": 3756, "State": "TX", "HubName": "UPS-Export, TX", "Coordinates": [32.9618763, -96.99609249999999], "Zip": "75019 "}, {"HubNumber": 3758, "State": "CA", "HubName": "Burbank, CA", "Coordinates": [34.23015670000001, -118.3520389], "Zip": "91352 "}, {"HubNumber": 3760, "State": "ME", "HubName": "Portland, ME", "Coordinates": [43.7021133, -70.3442134], "Zip": "04092 "}, {"HubNumber": 3762, "State": "CA", "HubName": "Orange, CA", "Coordinates": [33.7532358, -117.7901088], "Zip": "92705 "}, {"HubNumber": 3763, "State": "CA", "HubName": "Orange, CA", "Coordinates": [33.7532358, -117.7901088], "Zip": "92705 "}, {"HubNumber": 3764, "State": "FL", "HubName": "Orlando, Fl II", "Coordinates": [28.4588856, -81.3949264], "Zip": "32809 "}, {"HubNumber": 3772, "State": "GA", "HubName": "Austell ", "Coordinates": [33.7779488, -84.5746243], "Zip": "30168 "}, {"HubNumber": 3782, "State": "OR", "HubName": "Eugene, OR", "Coordinates": [44.0431493, -123.2259181], "Zip": "97402 "}, {"HubNumber": 3785, "State": "VT", "HubName": "Williston, VT", "Coordinates": [44.4315664, -73.1059193], "Zip": "05495 "}, {"HubNumber": 3788, "State": "CA", "HubName": "South Fullerton", "Coordinates": [33.8749591, -117.9659037], "Zip": "92833 "}, {"HubNumber": 3789, "State": "OH", "HubName": "Toledo, OH", "Coordinates": [41.5214385, -83.57096399999999], "Zip": "43551 "}, {"HubNumber": 3790, "State": "MI", "HubName": "Grand Rapids", "Coordinates": [42.8683658, -85.63320929999999], "Zip": "49508 "}, {"HubNumber": 3795, "State": "MI", "HubName": "Grayling, MI", "Coordinates": [44.687947, -84.6479124], "Zip": "49738 "}, {"HubNumber": 3798, "State": "KY", "HubName": "Lexington", "Coordinates": [38.1248882, -84.5012435], "Zip": "40511 "}, {"HubNumber": 3807, "State": "WA", "HubName": "Portland", "Coordinates": [45.6837914, -122.7488096], "Zip": "98660 "}, {"HubNumber": 3808, "State": "MI", "HubName": "Lansing", "Coordinates": [42.7043124, -84.5327038], "Zip": "48910 "}, {"HubNumber": 3812, "State": "CA", "HubName": "Ontario, CA ", "Coordinates": [34.0348144, -117.5848025], "Zip": "91761 "}, {"HubNumber": 3814, "State": "OH", "HubName": "UPS-London, OH", "Coordinates": [39.89867, -83.4430118], "Zip": "43140 "}, {"HubNumber": 3815, "State": "CA", "HubName": "San Diego ", "Coordinates": [32.8981142, -117.2029363], "Zip": "92121 "}, {"HubNumber": 3816, "State": "CA", "HubName": "Oxnard, CA", "Coordinates": [34.1599885, -119.1274334], "Zip": "93033 "}, {"HubNumber": 3820, "State": "OR", "HubName": "Washington", "Coordinates": [45.5507889, -122.5057403], "Zip": "97230 "}, {"HubNumber": 3822, "State": "OR", "HubName": "Idaho/Montana", "Coordinates": [45.5507889, -122.5057403], "Zip": "97230 "}, {"HubNumber": 3824, "State": "CA", "HubName": "South San Francisco", "Coordinates": [37.6531903, -122.4184108], "Zip": "94080 "}, {"HubNumber": 3829, "State": "ID", "HubName": "Boise, ID", "Coordinates": [43.5516566, -116.2987901], "Zip": "83709 "}, {"HubNumber": 3830, "State": "NM", "HubName": "Albuquerque, NM", "Coordinates": [35.15900680000001, -106.5760857], "Zip": "87109 "}, {"HubNumber": 3837, "State": "FL", "HubName": "Orlando  Carrier 1", "Coordinates": [28.3756472, -81.36194019999999], "Zip": "32824 "}, {"HubNumber": 3843, "State": "FL", "HubName": "UPS Export, FL", "Coordinates": [28.3756472, -81.36194019999999], "Zip": "32824 "}, {"HubNumber": 3844, "State": "CA", "HubName": "Ventura, CA", "Coordinates": [34.2054029, -119.1681373], "Zip": "93030 "}, {"HubNumber": 3845, "State": "NY", "HubName": "Port Chester, NY I", "Coordinates": [41.0125894, -73.6830521], "Zip": "10573 "}, {"HubNumber": 3850, "State": "CO", "HubName": "Colorado Springs, CO", "Coordinates": [38.7665005, -104.8804893], "Zip": "80906 "}, {"HubNumber": 3851, "State": "CA", "HubName": "Ontario ", "Coordinates": [34.0348144, -117.5848025], "Zip": "91761 "}, {"HubNumber": 3856, "State": "NJ", "HubName": "South Brunswick, NJ I", "Coordinates": [40.3749332, -74.49359129999999], "Zip": "08810 "}, {"HubNumber": 3857, "State": "VA", "HubName": "Richmond", "Coordinates": [37.5834425, -77.4185584], "Zip": "23222 "}, {"HubNumber": 3858, "State": "CT", "HubName": "Meriden, CT", "Coordinates": [41.5254822, -72.7688226], "Zip": "06450 "}, {"HubNumber": 3863, "State": "MI", "HubName": "Flint", "Coordinates": [43.1754912, -83.6986568], "Zip": "48420 "}, {"HubNumber": 3865, "State": "CA", "HubName": "LaMirada ", "Coordinates": [33.9045543, -118.0127534], "Zip": "90638 "}, {"HubNumber": 3881, "State": "FL", "HubName": "Pensacola ", "Coordinates": [30.44151849999999, -87.2518824], "Zip": "32505 "}, {"HubNumber": 3883, "State": "GA", "HubName": "Atlanta, GA II", "Coordinates": [33.8676889, -84.4645184], "Zip": "30339 "}, {"HubNumber": 3884, "State": "PA", "HubName": "Chambersburg ", "Coordinates": [39.9847065, -77.665066], "Zip": "17201 "}, {"HubNumber": 3885, "State": "TN", "HubName": "Tri City, TN", "Coordinates": [36.5298904, -82.5834947], "Zip": "37660 "}, {"HubNumber": 3886, "State": "OH", "HubName": "Columbus, Ohio", "Coordinates": [39.8762258, -83.05761559999999], "Zip": "43123 "}, {"HubNumber": 3887, "State": "KY", "HubName": "Louisville", "Coordinates": [38.1459555, -85.77691639999999], "Zip": "40214 "}, {"HubNumber": 3892, "State": "WV", "HubName": "Charles Town, WV", "Coordinates": [39.2536087, -77.8710285], "Zip": "25414 "}, {"HubNumber": 3893, "State": "PA", "HubName": "Western PA", "Coordinates": [39.9847065, -77.665066], "Zip": "17201 "}, {"HubNumber": 3894, "State": "PA", "HubName": "Beltsville MD", "Coordinates": [39.9847065, -77.665066], "Zip": "17201 "}, {"HubNumber": 3895, "State": "OH", "HubName": "Akron, OH", "Coordinates": [41.0263329, -81.3509416], "Zip": "44260 "}, {"HubNumber": 3901, "State": "AL", "HubName": "Montgomery, AL", "Coordinates": [32.3989318, -86.3224638], "Zip": "36104 "}, {"HubNumber": 3903, "State": "NY", "HubName": "Albany, NY", "Coordinates": [42.722661, -73.8301437], "Zip": "12205 "}, {"HubNumber": 3904, "State": "CT", "HubName": "Putnam CT", "Coordinates": [41.90460119999999, -71.8689917], "Zip": "06260 "}, {"HubNumber": 3905, "State": "CT", "HubName": "Manchester, CT", "Coordinates": [41.78, -72.52], "Zip": "06045 "}, {"HubNumber": 3909, "State": "MA", "HubName": "Stoneham, MA ", "Coordinates": [42.4766331, -71.0913748], "Zip": "02180 "}, {"HubNumber": 3913, "State": "CO", "HubName": "Aurora, CO ", "Coordinates": [39.7542465, -104.7871004], "Zip": "80011 "}, {"HubNumber": 3918, "State": "NY", "HubName": "Buffalo 3rd Party", "Coordinates": [42.8820351, -78.8099472], "Zip": "14206 "}, {"HubNumber": 3919, "State": "CO", "HubName": "Western Slope CO", "Coordinates": [39.075059, -108.5522531], "Zip": "81501 "}, {"HubNumber": 3920, "State": "MA", "HubName": "Sharon ", "Coordinates": [42.1159279, -71.1804988], "Zip": "02067 "}, {"HubNumber": 3921, "State": "MA", "HubName": "Taunton", "Coordinates": [41.9241038, -71.121085], "Zip": "02780 "}, {"HubNumber": 3924, "State": "NH", "HubName": "Vermont", "Coordinates": [43.6227722, -72.3138748], "Zip": "03784 "}, {"HubNumber": 3926, "State": "NY", "HubName": "Hicksville, NY", "Coordinates": [40.7621388, -73.51818329999999], "Zip": "11801 "}, {"HubNumber": 3928, "State": "GA", "HubName": "Savannah, GA ", "Coordinates": [32.08833810000001, -81.26289609999999], "Zip": "31322 "}, {"HubNumber": 3929, "State": "GA", "HubName": "Columbus, GA", "Coordinates": [33.029838, -85.14793639999999], "Zip": "30240 "}, {"HubNumber": 3931, "State": "OK", "HubName": "Oklahoma City, OK ", "Coordinates": [35.4495749, -97.55722310000002], "Zip": "73108 "}, {"HubNumber": 3932, "State": "MN", "HubName": "Minneapolis ", "Coordinates": [45.0766457, -93.20151760000002], "Zip": "55112 "}, {"HubNumber": 3933, "State": "VA", "HubName": "Virginia Beach", "Coordinates": [36.74135, -76.3457098], "Zip": "23323 "}, {"HubNumber": 3937, "State": "NY", "HubName": "Rochester, New York", "Coordinates": [43.0915814, -77.6421577], "Zip": "14623 "}, {"HubNumber": 3938, "State": "NY", "HubName": "Binghamton", "Coordinates": [42.1825615, -75.9579358], "Zip": "13905 "}, {"HubNumber": 3939, "State": "PA", "HubName": "Erie, PA", "Coordinates": [41.6151426, -80.1428584], "Zip": "16335 "}, {"HubNumber": 3945, "State": "AR", "HubName": "Little Rock, AR", "Coordinates": [34.7587524, -92.2581158], "Zip": "72114 "}, {"HubNumber": 3946, "State": "PA", "HubName": "Philadelphia-II", "Coordinates": [40.1344021, -74.8565613], "Zip": "19057 "}, {"HubNumber": 3953, "State": "NY", "HubName": "Syracuse", "Coordinates": [43.0855245, -77.5977596], "Zip": "14692 "}, {"HubNumber": 3954, "State": "NY", "HubName": "Rochester", "Coordinates": [43.0855245, -77.5977596], "Zip": "14692 "}, {"HubNumber": 3962, "State": "CA", "HubName": "Sacramento, CA", "Coordinates": [38.643335, -121.4570447], "Zip": "95838 "}, {"HubNumber": 3969, "State": "VA", "HubName": "Chesapeake, VA ", "Coordinates": [36.8574869, -76.2073525], "Zip": "23502 "}, {"HubNumber": 3971, "State": "ME", "HubName": "Bangor, ME", "Coordinates": [44.7767302, -68.7321678], "Zip": "04412 "}, {"HubNumber": 3974, "State": "MD", "HubName": "Alexandria, Va", "Coordinates": [39.1676655, -76.7221082], "Zip": "21076 "}, {"HubNumber": 3978, "State": "CA", "HubName": "UPS Export, CA", "Coordinates": [34.0348144, -117.5848025], "Zip": "91761 "}, {"HubNumber": 3986, "State": "CO", "HubName": "CO", "Coordinates": [39.9726732, -104.8104424], "Zip": "80601 "}, {"HubNumber": 3987, "State": "CO", "HubName": "North", "Coordinates": [39.9726732, -104.8104424], "Zip": "80601 "}, {"HubNumber": 3989, "State": "CO", "HubName": "NM", "Coordinates": [39.9726732, -104.8104424], "Zip": "80601 "}, {"HubNumber": 3994, "State": "WV", "HubName": "Charleston, WV", "Coordinates": [38.4039076, -81.8169709], "Zip": "25143 "}, {"HubNumber": 3998, "State": "MI", "HubName": "Taylor, MI", "Coordinates": [42.2164077, -83.2720082], "Zip": "48180 "}, {"HubNumber": 7100, "State": "TX", "HubName": "Austin, TX", "Coordinates": [30.3889868, -97.6710889], "Zip": "78753 "}, {"HubNumber": 7103, "State": "TX", "HubName": "San Antonio, TX", "Coordinates": [29.5516834, -98.49522280000001], "Zip": "78216 "}, {"HubNumber": 7104, "State": "WI", "HubName": "Wausau, WI", "Coordinates": [44.9810012, -89.7192132], "Zip": "54401 "}, {"HubNumber": 7117, "State": "TX", "HubName": "Grapevine, TX", "Coordinates": [32.9618763, -96.99609249999999], "Zip": "75019 "}, {"HubNumber": 7140, "State": "TX", "HubName": "Quill  Dallas", "Coordinates": [32.9618763, -96.99609249999999], "Zip": "75019 "}, {"HubNumber": 7143, "State": "OK", "HubName": "Oklahoma City", "Coordinates": [35.4495749, -97.55722310000002], "Zip": "73108 "}, {"HubNumber": 7197, "State": "TX", "HubName": "Dallas, TX ", "Coordinates": [32.9618763, -96.99609249999999], "Zip": "75019 "}, {"HubNumber": 7220, "State": "TX", "HubName": "Austin, TX ", "Coordinates": [30.3870686, -97.70365609999999], "Zip": "78758 "}, {"HubNumber": 7221, "State": "TX", "HubName": "San Antonio, TX ", "Coordinates": [29.4489141, -98.39101269999999], "Zip": "78219 "}, {"HubNumber": 7551, "State": "MN", "HubName": "Arden Hills, MN", "Coordinates": [45.0563001, -93.25994589999999], "Zip": "55421 "}, {"HubNumber": 7579, "State": "AR", "HubName": "Little Rock, AR", "Coordinates": [34.6741181, -92.3517526], "Zip": "72209 "}, {"HubNumber": 7580, "State": "AR", "HubName": "Little Rock, AR", "Coordinates": [34.6741181, -92.3517526], "Zip": "72209 "}, {"HubNumber": 7584, "State": "PA", "HubName": "Quill Misc", "Coordinates": [39.9847065, -77.665066], "Zip": "17201 "}, {"HubNumber": 7585, "State": "NY", "HubName": "Albany, NY III", "Coordinates": [42.722661, -73.8301437], "Zip": "12205 "}, {"HubNumber": 7586, "State": "CA", "HubName": "Quill Misc", "Coordinates": [34.0348144, -117.5848025], "Zip": "91761 "}, {"HubNumber": 7588, "State": "MI", "HubName": "Crystal Falls, MI", "Coordinates": [46.1582182, -88.2945022], "Zip": "49920 "}, {"HubNumber": 7589, "State": "UT", "HubName": "Cedar City, UT", "Coordinates": [37.0441957, -113.5490415], "Zip": "84790 "}, {"HubNumber": 7711, "State": "TX", "HubName": "Austin, TX", "Coordinates": [30.3889868, -97.6710889], "Zip": "78753 "}, {"HubNumber": 7712, "State": "TX", "HubName": "San Antonio, TX", "Coordinates": [29.5516834, -98.49522280000001], "Zip": "78216 "}, {"HubNumber": 7727, "State": "MD", "HubName": "Jessup, MD", "Coordinates": [39.1676655, -76.7221082], "Zip": "21076 "}, {"HubNumber": 8002, "State": "MA", "HubName": "Sudbury Ma., UPS 2", "Coordinates": [42.384659, -71.4180622], "Zip": "01776 "}, {"HubNumber": 8003, "State": "MA", "HubName": "Sudbury Ma. Export", "Coordinates": [42.384659, -71.4180622], "Zip": "01776 "}, {"HubNumber": 8005, "State": "TX", "HubName": "Austin, TX ", "Coordinates": [30.3870686, -97.70365609999999], "Zip": "78758 "}, {"HubNumber": 8006, "State": "TX", "HubName": "San Antonio, TX ", "Coordinates": [29.4489141, -98.39101269999999], "Zip": "78219 "}, {"HubNumber": 8007, "State": "NY", "HubName": "Syracuse, NY-II", "Coordinates": [43.0756836, -76.1493891], "Zip": "13208 "}, {"HubNumber": 8014, "State": "VA", "HubName": "Richmond, VA II", "Coordinates": [37.5834425, -77.4185584], "Zip": "23222 "}, {"HubNumber": 8026, "State": "FL", "HubName": "Orlando, FL ", "Coordinates": [28.3756472, -81.36194019999999], "Zip": "32824 "}, {"HubNumber": 8027, "State": "FL", "HubName": "Tampa ", "Coordinates": [28.0007147, -82.3831561], "Zip": "33610 "}, {"HubNumber": 8028, "State": "FL", "HubName": "Fort Myers ", "Coordinates": [26.5321109, -81.71305219999999], "Zip": "33913 "}, {"HubNumber": 8029, "State": "FL", "HubName": "Miami, FL", "Coordinates": [25.7858514, -80.360297], "Zip": "33172 "}, {"HubNumber": 8030, "State": "MO", "HubName": "Springfield, MO", "Coordinates": [37.294172, -93.29861059999999], "Zip": "65803 "}, {"HubNumber": 8032, "State": "MO", "HubName": "UPS Saint Louis", "Coordinates": [39.1347147, -94.5160396], "Zip": "64120 "}, {"HubNumber": 8033, "State": "MO", "HubName": "Kansas City ", "Coordinates": [39.1347147, -94.5160396], "Zip": "64120 "}, {"HubNumber": 8034, "State": "KS", "HubName": "Topeka, KS", "Coordinates": [38.95, -95.7099999], "Zip": "66620 "}, {"HubNumber": 8035, "State": "MO", "HubName": "Columbia, MO", "Coordinates": [38.951674, -92.33254099999999], "Zip": "65201 "}, {"HubNumber": 8036, "State": "IA", "HubName": "East Omaha", "Coordinates": [41.2945721, -95.9145568], "Zip": "51510 "}, {"HubNumber": 8037, "State": "MO", "HubName": "Kansas City ", "Coordinates": [39.1584696, -94.5727598], "Zip": "64116 "}, {"HubNumber": 8040, "State": "IA", "HubName": "Des Moines, IA", "Coordinates": [41.6882419, -93.7943157], "Zip": "50111 "}, {"HubNumber": 8044, "State": "MO", "HubName": "UPS-Kanas City TWI", "Coordinates": [39.1347147, -94.5160396], "Zip": "64120 "}, {"HubNumber": 8045, "State": "MO", "HubName": "UPS-Kansas City Night", "Coordinates": [39.1347147, -94.5160396], "Zip": "64120 "}, {"HubNumber": 8046, "State": "KS", "HubName": "Wichita", "Coordinates": [37.67231, -97.3138554], "Zip": "67211 "}, {"HubNumber": 8047, "State": "MO", "HubName": "Hannibal, MO", "Coordinates": [39.705018, -91.4241426], "Zip": "63401 "}, {"HubNumber": 8048, "State": "LA", "HubName": "Lake Charles Louisiana", "Coordinates": [30.2476472, -91.99794109999999], "Zip": "70501 "}, {"HubNumber": 8049, "State": "NE", "HubName": "Omaha, NE", "Coordinates": [41.2354329, -95.99383390000001], "Zip": "68106 "}, {"HubNumber": 8050, "State": "MO", "HubName": "St. Louis, MO I", "Coordinates": [38.6893721, -90.266699], "Zip": "63120 "}, {"HubNumber": 8052, "State": "SD", "HubName": "Sioux Falls, SD", "Coordinates": [43.6071315, -96.81366419999999], "Zip": "57107 "}, {"HubNumber": 8053, "State": "OK", "HubName": "Tulsa", "Coordinates": [36.1964847, -95.8459341], "Zip": "74116 "}, {"HubNumber": 8054, "State": "IA", "HubName": "Northern Iowa", "Coordinates": [41.6882419, -93.7943157], "Zip": "50111 "}, {"HubNumber": 8055, "State": "AR", "HubName": "Springdale", "Coordinates": [36.1731365, -94.0491077], "Zip": "72764 "}, {"HubNumber": 8061, "State": "CA", "HubName": "Concord, CA ", "Coordinates": [38.1153501, -122.1064668], "Zip": "94510 "}, {"HubNumber": 8063, "State": "CA", "HubName": "Milpitas, CA", "Coordinates": [37.4323716, -121.8993526], "Zip": "95035 "}, {"HubNumber": 8064, "State": "CA", "HubName": "Hayward, CA ", "Coordinates": [37.5042267, -121.9643745], "Zip": "94538 "}, {"HubNumber": 8067, "State": "CA", "HubName": "Salinas, CA", "Coordinates": [36.7918545, -121.6511258], "Zip": "93907 "}, {"HubNumber": 8069, "State": "CO", "HubName": "Brighton, CO ", "Coordinates": [39.9877992, -104.6937674], "Zip": "80603 "}, {"HubNumber": 8070, "State": "GA", "HubName": "Doraville, GA", "Coordinates": [33.9025669, -84.25421949999999], "Zip": "30340 "}, {"HubNumber": 8074, "State": "WI", "HubName": "Green Bay, WI", "Coordinates": [44.2953936, -88.5371958], "Zip": "54942 "}, {"HubNumber": 8077, "State": "FL", "HubName": "Jacksonville ", "Coordinates": [30.2906907, -81.57061089999999], "Zip": "32216 "}, {"HubNumber": 8078, "State": "FL", "HubName": "Jacksonville, FL", "Coordinates": [30.2205397, -81.5537192], "Zip": "32256 "}, {"HubNumber": 8081, "State": "MO", "HubName": "St. Louis, MO ", "Coordinates": [38.7415569, -90.3418927], "Zip": "63134 "}, {"HubNumber": 8083, "State": "IN", "HubName": "Griffith, IN", "Coordinates": [41.5226492, -87.4306663], "Zip": "46319 "}, {"HubNumber": 8085, "State": "OH", "HubName": "Cincinnati, OH II", "Coordinates": [39.2828895, -84.46976629999999], "Zip": "45246 "}, {"HubNumber": 8090, "State": "TN", "HubName": "Cookeville TN", "Coordinates": [36.2452673, -85.5406209], "Zip": "38501 "}, {"HubNumber": 8099, "State": "FL", "HubName": "Puerto Rico", "Coordinates": [28.3756472, -81.36194019999999], "Zip": "32824 "}, {"HubNumber": 8101, "State": "WI", "HubName": "Green Bay, WI ", "Coordinates": [44.4866783, -88.0607565], "Zip": "54304 "}, {"HubNumber": 8102, "State": "WI", "HubName": "Pewaukee, WI ", "Coordinates": [43.015059, -88.19741479999999], "Zip": "53186 "}, {"HubNumber": 8103, "State": "WI", "HubName": "Madison, WI ", "Coordinates": [43.1438143, -89.35114949999999], "Zip": "53704 "}, {"HubNumber": 8148, "State": "CA", "HubName": "Ontario, CA", "Coordinates": [34.08378700000001, -117.4673845], "Zip": "92335 "}, {"HubNumber": 8152, "State": "TX", "HubName": "Grapevine, TX II", "Coordinates": [32.9618763, -96.99609249999999], "Zip": "75019 "}, {"HubNumber": 8157, "State": "TX", "HubName": "Abilene, TX", "Coordinates": [32.3611059, -99.91298450000001], "Zip": "79603 "}, {"HubNumber": 8167, "State": "IL", "HubName": "Peru, IL", "Coordinates": [41.3278445, -89.1420182], "Zip": "61354 "}, {"HubNumber": 8168, "State": "MO", "HubName": "St. Louis, MO II", "Coordinates": [38.6893721, -90.266699], "Zip": "63120 "}, {"HubNumber": 8175, "State": "TX", "HubName": "Houston TX ", "Coordinates": [29.7970042, -95.4830243], "Zip": "77055 "}, {"HubNumber": 8177, "State": "PA", "HubName": "Pittsburg, PA II", "Coordinates": [40.4042704, -78.49792479999999], "Zip": "16635 "}, {"HubNumber": 8181, "State": "NJ", "HubName": " Secaucus", "Coordinates": [40.782392, -74.0711359], "Zip": "07094 "}, {"HubNumber": 8195, "State": "NE", "HubName": "Omaha NE II", "Coordinates": [41.2354329, -95.99383390000001], "Zip": "68106 "}, {"HubNumber": 8202, "State": "NM", "HubName": "Albuquerque, NM", "Coordinates": [35.15900680000001, -106.5760857], "Zip": "87109 "}, {"HubNumber": 8203, "State": "OH", "HubName": "Dayton, OH II", "Coordinates": [39.8476384, -84.21734029999999], "Zip": "45414 "}, {"HubNumber": 8205, "State": "CA", "HubName": "Yuma, AZ ", "Coordinates": [32.7538822, -115.5917918], "Zip": "92243 "}, {"HubNumber": 8211, "State": "OH", "HubName": "Cleveland, OH", "Coordinates": [41.3884635, -81.65829939999999], "Zip": "44131 "}, {"HubNumber": 8216, "State": "OH", "HubName": "Richfield, OH", "Coordinates": [41.0263329, -81.3509416], "Zip": "44260 "}, {"HubNumber": 8220, "State": "AZ", "HubName": "Phoenix, AZ ", "Coordinates": [33.4169563, -112.274168], "Zip": "85353 "}, {"HubNumber": 8221, "State": "AZ", "HubName": "Tucson, AZ ", "Coordinates": [32.0787726, -110.9268201], "Zip": "85756 "}, {"HubNumber": 8222, "State": "AZ", "HubName": "Phoenix Night", "Coordinates": [33.4169563, -112.274168], "Zip": "85353 "}, {"HubNumber": 8223, "State": "AZ", "HubName": "Phoenix ", "Coordinates": [33.4169563, -112.274168], "Zip": "85353 "}, {"HubNumber": 8225, "State": "AZ", "HubName": "LTL FedEx Freight", "Coordinates": [33.4169563, -112.274168], "Zip": "85353 "}, {"HubNumber": 8231, "State": "TX", "HubName": "Waco, TX", "Coordinates": [31.5348439, -97.286868], "Zip": "76712 "}, {"HubNumber": 8234, "State": "TX", "HubName": "El Paso, TX", "Coordinates": [31.8078487, -106.4081983], "Zip": "79906 "}, {"HubNumber": 8241, "State": "AK", "HubName": "UPS Alaska", "Coordinates": [61.19114399999999, -149.8902415], "Zip": "99503 "}, {"HubNumber": 8245, "State": "AK", "HubName": "U.S. Mail", "Coordinates": [61.19114399999999, -149.8902415], "Zip": "99503 "}, {"HubNumber": 8246, "State": "AK", "HubName": "Anchorage, AK ", "Coordinates": [61.19114399999999, -149.8902415], "Zip": "99503 "}, {"HubNumber": 8247, "State": "AK", "HubName": "Alaska 3rd Party", "Coordinates": [64.8388243, -147.7489362], "Zip": "99701 "}, {"HubNumber": 8249, "State": "AZ", "HubName": "Phoenix, AZ ", "Coordinates": [33.4304026, -112.2026347], "Zip": "85043 "}, {"HubNumber": 8251, "State": "WI", "HubName": "LaCrosse, WI", "Coordinates": [0, 0], "Zip": "54604 "}, {"HubNumber": 8261, "State": "MD", "HubName": "Jessup, MD", "Coordinates": [39.1676655, -76.7221082], "Zip": "21076 "}, {"HubNumber": 8263, "State": "MD", "HubName": "Hanover, MD ", "Coordinates": [39.1676655, -76.7221082], "Zip": "21076 "}, {"HubNumber": 8281, "State": "TN", "HubName": "Memphis, TN ", "Coordinates": [35.0277847, -89.9346659], "Zip": "38118 "}, {"HubNumber": 8285, "State": "TN", "HubName": "Nashville, TN ", "Coordinates": [35.9805462, -86.761749], "Zip": "37027 "}, {"HubNumber": 8287, "State": "TN", "HubName": "Nashville, TN II", "Coordinates": [36.2305398, -86.7718017], "Zip": "37207 "}, {"HubNumber": 8288, "State": "TN", "HubName": "Jackson, TN II", "Coordinates": [35.6684779, -88.7301525], "Zip": "38305 "}, {"HubNumber": 8289, "State": "VA", "HubName": "Sterling, VA", "Coordinates": [38.9091011, -77.5275463], "Zip": "20152 "}, {"HubNumber": 8290, "State": "MS", "HubName": "Tupelo, MS", "Coordinates": [0, 0], "Zip": "38802 "}, {"HubNumber": 8291, "State": "MS", "HubName": "Jackson, MS II", "Coordinates": [32.4124147, -90.2901815], "Zip": "39209 "}, {"HubNumber": 8292, "State": "MS", "HubName": "Gulfport, MS", "Coordinates": [30.3918615, -89.0322699], "Zip": "39507 "}, {"HubNumber": 8293, "State": "MS", "HubName": "Hattiesburg, MS", "Coordinates": [31.2148677, -89.28472510000002], "Zip": "39401 "}, {"HubNumber": 8299, "State": "TN", "HubName": "Memphis", "Coordinates": [35.0277847, -89.9346659], "Zip": "38118 "}, {"HubNumber": 8305, "State": "DE", "HubName": "Dover", "Coordinates": [38.7352162, -75.5975296], "Zip": "19933 "}, {"HubNumber": 8360, "State": "MD", "HubName": "Washington, DC", "Coordinates": [39.1676655, -76.7221082], "Zip": "21076 "}, {"HubNumber": 8426, "State": "OR", "HubName": "Medford, OR", "Coordinates": [42.2855796, -122.886705], "Zip": "97501 "}, {"HubNumber": 8430, "State": "CA", "HubName": "South Fullerton", "Coordinates": [33.8749591, -117.9659037], "Zip": "92833 "}, {"HubNumber": 8489, "State": "NJ", "HubName": "Saddle Brook NJ.", "Coordinates": [40.90412329999999, -74.0946311], "Zip": "07663 "}, {"HubNumber": 8506, "State": "CA", "HubName": "Stockton, Ca II", "Coordinates": [37.9009213, -121.422761], "Zip": "95206 "}, {"HubNumber": 8550, "State": "NJ", "HubName": "UPS Export, NJ", "Coordinates": [40.782392, -74.0711359], "Zip": "07094 "}, {"HubNumber": 8575, "State": "MN", "HubName": "Arden Hills, MN", "Coordinates": [45.0563001, -93.25994589999999], "Zip": "55421 "}, {"HubNumber": 8576, "State": "NJ", "HubName": "Jersey City II", "Coordinates": [40.7008528, -74.0887576], "Zip": "07305 "}, {"HubNumber": 8578, "State": "ND", "HubName": "Fargo, ND", "Coordinates": [46.9223429, -96.840133], "Zip": "58102 "}, {"HubNumber": 8580, "State": "LA", "HubName": "Hammond, La", "Coordinates": [30.469382, -90.4974359], "Zip": "70403 "}, {"HubNumber": 8600, "State": "UT", "HubName": "Salt Lake City, Utah", "Coordinates": [40.7095135, -111.9641728], "Zip": "84119 "}, {"HubNumber": 8604, "State": "ID", "HubName": "Idaho Falls, ID", "Coordinates": [42.98999999999999, -112.4600001], "Zip": "83203 "}, {"HubNumber": 8606, "State": "MT", "HubName": "Missoula, MT", "Coordinates": [46.9870522, -114.1335617], "Zip": "59808 "}, {"HubNumber": 8655, "State": "SC", "HubName": "Columbia, SC", "Coordinates": [34.1156043, -81.0533854], "Zip": "29203 "}, {"HubNumber": 8659, "State": "NC", "HubName": "Charlotte, NC", "Coordinates": [35.12905569999999, -80.9539475], "Zip": "28273 "}, {"HubNumber": 8673, "State": "OR", "HubName": "Portland Oregon ", "Coordinates": [45.5507889, -122.5057403], "Zip": "97230 "}, {"HubNumber": 8705, "State": "SC", "HubName": "Greer, SC", "Coordinates": [34.8542647, -82.1931149], "Zip": "29651 "}, {"HubNumber": 8706, "State": "SC", "HubName": "Charleston, SC", "Coordinates": [32.8669545, -79.9752212], "Zip": "29405 "}, {"HubNumber": 8707, "State": "NC", "HubName": "Charlotte, NC", "Coordinates": [35.2833293, -80.9760556], "Zip": "28214 "}, {"HubNumber": 8709, "State": "NC", "HubName": "Greenville, NC", "Coordinates": [35.6450428, -77.4242972], "Zip": "27834 "}, {"HubNumber": 8740, "State": "CA", "HubName": "San Diego ", "Coordinates": [32.8981142, -117.2029363], "Zip": "92121 "}, {"HubNumber": 8743, "State": "CA", "HubName": "LaMirada ", "Coordinates": [33.9045543, -118.0127534], "Zip": "90638 "}, {"HubNumber": 8751, "State": "CA", "HubName": "Bakersfield, CA", "Coordinates": [35.344108, -119.0285355], "Zip": "93304 "}, {"HubNumber": 8773, "State": "FL", "HubName": "Daytona", "Coordinates": [29.240991, -81.06994619999999], "Zip": "32117 "}, {"HubNumber": 8775, "State": "ID", "HubName": "Idaho Falls  1", "Coordinates": [43.4233213, -112.0143728], "Zip": "83404 "}, {"HubNumber": 8777, "State": "TX", "HubName": "Hobbs, NM", "Coordinates": [33.580247, -102.0946818], "Zip": "79407 "}, {"HubNumber": 8795, "State": "CA", "HubName": "North Hollywood", "Coordinates": [34.23015670000001, -118.3520389], "Zip": "91352 "}, {"HubNumber": 8801, "State": "MN", "HubName": "Minneapolis, MN ", "Coordinates": [45.0766457, -93.20151760000002], "Zip": "55112 "}, {"HubNumber": 8803, "State": "MN", "HubName": "Hudson, WI", "Coordinates": [44.9872983, -92.68025139999999], "Zip": "54016 "}, {"HubNumber": 8805, "State": "MN", "HubName": "Mankato, MN", "Coordinates": [0, 0], "Zip": "54012 "}, {"HubNumber": 8807, "State": "MN", "HubName": "Clearwater, MN", "Coordinates": [45.4051686, -94.0858633], "Zip": "55320 "}, {"HubNumber": 8809, "State": "MN", "HubName": "Duluth, MN", "Coordinates": [46.8220948, -92.1865684], "Zip": "55811 "}, {"HubNumber": 8811, "State": "SD", "HubName": "Sioux Falls, SD", "Coordinates": [43.6071315, -96.81366419999999], "Zip": "57107 "}, {"HubNumber": 8814, "State": "MN", "HubName": "Arden Hills", "Coordinates": [45.0766457, -93.20151760000002], "Zip": "55112 "}, {"HubNumber": 8827, "State": "IL", "HubName": "DDS-Chicago", "Coordinates": [41.742326, -87.9304181], "Zip": "60527 "}, {"HubNumber": 8837, "State": "CA", "HubName": "Santa Maria, CA", "Coordinates": [34.8442407, -120.4588059], "Zip": "93455 "}, {"HubNumber": 8840, "State": "OK", "HubName": "Oklahoma City, OK  II", "Coordinates": [35.4495749, -97.55722310000002], "Zip": "73108 "}, {"HubNumber": 8843, "State": "TX", "HubName": "Houston", "Coordinates": [29.8760239, -95.5249863], "Zip": "77040 "}, {"HubNumber": 8845, "State": "TX", "HubName": "Corpus Christi, TX", "Coordinates": [27.7974628, -97.44624859999999], "Zip": "78408 "}, {"HubNumber": 8848, "State": "TX", "HubName": "Laredo, TX ", "Coordinates": [29.5516834, -98.49522280000001], "Zip": "78216 "}, {"HubNumber": 8850, "State": "TX", "HubName": "Harlingen, TX", "Coordinates": [26.2625297, -97.654811], "Zip": "78550 "}, {"HubNumber": 8851, "State": "LA", "HubName": "New Orleans, LA", "Coordinates": [29.9853746, -90.2526163], "Zip": "70062 "}, {"HubNumber": 8857, "State": "TX", "HubName": "Houston, TX ", "Coordinates": [29.8760239, -95.5249863], "Zip": "77040 "}, {"HubNumber": 8859, "State": "LA", "HubName": "Lafayette, LA ", "Coordinates": [30.2476472, -91.99794109999999], "Zip": "70501 "}, {"HubNumber": 8860, "State": "TX", "HubName": "Grapevine, TX II", "Coordinates": [32.9618763, -96.99609249999999], "Zip": "75019 "}, {"HubNumber": 8862, "State": "IL", "HubName": "West Chicago, IL", "Coordinates": [42.01136169999999, -88.0020589], "Zip": "60007 "}, {"HubNumber": 8869, "State": "MS", "HubName": "Winona, MS", "Coordinates": [32.4124147, -90.2901815], "Zip": "39209 "}, {"HubNumber": 8883, "State": "NJ", "HubName": "South Brunswick, NJ ", "Coordinates": [40.3749332, -74.49359129999999], "Zip": "08810 "}, {"HubNumber": 8884, "State": "NJ", "HubName": "Manhattan", "Coordinates": [40.782392, -74.0711359], "Zip": "07094 "}, {"HubNumber": 8885, "State": "NJ", "HubName": "North New Jersey", "Coordinates": [40.859067, -74.04616899999999], "Zip": "07606 "}, {"HubNumber": 8889, "State": "WA", "HubName": "Kent, Washington", "Coordinates": [47.4116866, -122.245159], "Zip": "98032 "}, {"HubNumber": 8890, "State": "FL", "HubName": "Melbourne Fl.", "Coordinates": [29.240991, -81.06994619999999], "Zip": "32117 "}, {"HubNumber": 8891, "State": "WA", "HubName": "Auburn Washington ", "Coordinates": [47.3394747, -122.2667661], "Zip": "98001 "}, {"HubNumber": 8914, "State": "NY", "HubName": "Quill Queens, NY", "Coordinates": [40.7224092, -73.9095279], "Zip": "11378 "}, {"HubNumber": 8915, "State": "NJ", "HubName": "Jersey City", "Coordinates": [40.7008528, -74.0887576], "Zip": "07305 "}, {"HubNumber": 8916, "State": "NY", "HubName": "Hicksville, NY", "Coordinates": [40.7621388, -73.51818329999999], "Zip": "11801 "}, {"HubNumber": 8917, "State": "NJ", "HubName": "SPLS  South Brunswick", "Coordinates": [40.3749332, -74.49359129999999], "Zip": "08810 "}, {"HubNumber": 8918, "State": "MD", "HubName": "SPLS  Hanover", "Coordinates": [39.1676655, -76.7221082], "Zip": "21076 "}, {"HubNumber": 8967, "State": "NC", "HubName": "Fayetteville, NC", "Coordinates": [34.661535, -78.8835548], "Zip": "28358 "}, {"HubNumber": 8968, "State": "NC", "HubName": "Wilmington, NC", "Coordinates": [34.661535, -78.8835548], "Zip": "28358 "}, {"HubNumber": 8969, "State": "SC", "HubName": "Myrtle Beach, SC", "Coordinates": [33.87967, -78.97407249999999], "Zip": "29526 "}, {"HubNumber": 8971, "State": "NC", "HubName": "Durham NC ", "Coordinates": [35.9657059, -78.8042828], "Zip": "27703 "}, {"HubNumber": 8972, "State": "NC", "HubName": "Asheville, NC", "Coordinates": [35.4393566, -82.4536115], "Zip": "28732 "}, {"HubNumber": 8974, "State": "NC", "HubName": "Charlotte, NC ", "Coordinates": [35.12905569999999, -80.9539475], "Zip": "28273 "}, {"HubNumber": 8976, "State": "NC", "HubName": "Raleigh, NC", "Coordinates": [35.8387032, -78.8269385], "Zip": "27560 "}, {"HubNumber": 8978, "State": "VA", "HubName": "Roanoke, VA", "Coordinates": [37.3172783, -79.8912813], "Zip": "24012 "}, {"HubNumber": 8979, "State": "NC", "HubName": "Greensboro, NC", "Coordinates": [36.0896801, -79.95284509999999], "Zip": "27409 "}]