[{"Coordinates": [61.19114399999999, -149.8902415], "Zip": "99503", "State": "AK", "FCNum": 129, "FCName": "Anchorage"}, {"Coordinates": [41.90460119999999, -71.8689917], "Zip": "06260", "State": "CT", "FCNum": 472, "FCName": "Putnam"}, {"Coordinates": [42.5276281, -89.0752499], "Zip": "53511", "State": "WI", "FCNum": 580, "FCName": "Beloit"}, {"Coordinates": [33.7584098, -84.63744840000001], "Zip": "30122", "State": "GA", "FCNum": 675, "FCName": "Atlanta"}, {"Coordinates": [39.9847065, -77.665066], "Zip": "17201", "State": "PA", "FCNum": 682, "FCName": "Chambersburg"}, {"Coordinates": [41.5180848, -74.24140919999999], "Zip": "12549", "State": "NY", "FCNum": 683, "FCName": "Montgomery"}, {"Coordinates": [39.89867, -83.4430118], "Zip": "43140", "State": "OH", "FCNum": 684, "FCName": "London"}, {"Coordinates": [45.0766457, -93.20151760000002], "Zip": "55112", "State": "MN", "FCNum": 688, "FCName": "Arden Hills"}, {"Coordinates": [34.3627106, -117.2911248], "Zip": "92345", "State": "CA", "FCNum": 692, "FCName": "SoCal"}, {"Coordinates": [39.1347147, -94.5160396], "Zip": "64120", "State": "MO", "FCNum": 716, "FCName": "Kansas City"}, {"Coordinates": [37.9009213, -121.422761], "Zip": "95206", "State": "CA", "FCNum": 748, "FCName": "Stockton"}, {"Coordinates": [45.5507889, -122.5057403], "Zip": "97230", "State": "OR", "FCNum": 805, "FCName": "Portland"}, {"Coordinates": [39.9877992, -104.6937674], "Zip": "80603", "State": "CO", "FCNum": 807, "FCName": "Denver"}, {"Coordinates": [35.0277847, -89.9346659], "Zip": "38118", "State": "TN", "FCNum": 812, "FCName": "Memphis"}, {"Coordinates": [33.4169563, -112.274168], "Zip": "85353", "State": "AZ", "FCNum": 834, "FCName": "Phoenix"}, {"Coordinates": [32.9618763, -96.99609249999999], "Zip": "75019", "State": "TX", "FCNum": 839, "FCName": "Dallas"}, {"Coordinates": [28.3756472, -81.36194019999999], "Zip": "32824", "State": "FL", "FCNum": 895, "FCName": "Orlando"}, {"Coordinates": [42.384659, -71.4180622], "Zip": "01776", "State": "MA", "FCNum": 906, "FCName": "Sudbury"}, {"Coordinates": [43.0915814, -77.6421577], "Zip": "14623", "State": "NY", "FCNum": 925, "FCName": "Rochester"}, {"Coordinates": [39.8032818, -77.76809519999999], "Zip": "17225", "State": "PA", "FCNum": 937, "FCName": "Greencastle"}, {"Coordinates": [32.9618763, -96.99609249999999], "Zip": "75019", "State": "TX", "FCNum": 961, "FCName": "Coppell"}, {"Coordinates": [29.8760239, -95.5249863], "Zip": "77040", "State": "TX", "FCNum": 972, "FCName": "Houston"}, {"Coordinates": [33.7844997, -118.1971031], "Zip": "90813", "State": "CA", "FCNum": 974, "FCName": "LaMirada"}, {"Coordinates": [43.5277581, -112.1982126], "Zip": "83402", "State": "ID", "FCNum": 976, "FCName": "Idaho Falls"}, {"Coordinates": [35.12905569999999, -80.9539475], "Zip": "28273", "State": "NC", "FCNum": 977, "FCName": "New Charlotte"}, {"Coordinates": [39.1676655, -76.7221082], "Zip": "21076", "State": "MD", "FCNum": 981, "FCName": "Hanover"}, {"Coordinates": [40.782392, -74.0711359], "Zip": "07094", "State": "NJ", "FCNum": 983, "FCName": "Secaucus"}]